{
  "type": "FeatureCollection",
  "name": "urb_zonificacion_lujan",
  "crs": {
    "type": "name",
    "properties": {
      "name": "urn:ogc:def:crs:OGC:1.3:CRS84"
    }
  },
  "features": [
    {
      "type": "Feature",
      "properties": {
        "codigo": "R1",
        "nombre": "Residencial Central y Cívica",
        "distrito": "CIUDAD",
        "fos": 0.7,
        "fot": 2.0,
        "altura_max": "12 m (PB + 3 pisos)",
        "usos_permitidos": "Vivienda unifamiliar/colectiva, comercios de cercanía, servicios",
        "normativa": "Ord. Municipal 13.820/2019 - Plan de Ordenamiento Territorial",
        "color": "#e74c3c"
      },
      "geometry": {
        "type": "Polygon",
        "coordinates": [
          [
            [
              -68.895,
              -33.045
            ],
            [
              -68.865,
              -33.045
            ],
            [
              -68.865,
              -33.068
            ],
            [
              -68.895,
              -33.068
            ],
            [
              -68.895,
              -33.045
            ]
          ]
        ]
      }
    },
    {
      "type": "Feature",
      "properties": {
        "codigo": "R3",
        "nombre": "Residencial Parque Residencial",
        "distrito": "CHACRAS DE CORIA",
        "fos": 0.35,
        "fot": 0.7,
        "altura_max": "7.5 m (PB + 1 piso)",
        "usos_permitidos": "Vivienda unifamiliar, preservación de arbolado y jardines",
        "normativa": "Ord. Municipal 13.820/2019 - Zona Residencial Chacras",
        "color": "#f39c12"
      },
      "geometry": {
        "type": "Polygon",
        "coordinates": [
          [
            [
              -68.89,
              -32.985
            ],
            [
              -68.86,
              -32.985
            ],
            [
              -68.86,
              -33.018
            ],
            [
              -68.89,
              -33.018
            ],
            [
              -68.89,
              -32.985
            ]
          ]
        ]
      }
    },
    {
      "type": "Feature",
      "properties": {
        "codigo": "C1",
        "nombre": "Corredor Comercial Metropolitano",
        "distrito": "CARRODILLA",
        "fos": 0.8,
        "fot": 2.5,
        "altura_max": "15 m",
        "usos_permitidos": "Comercio mayorista/minorista, oficinas corporativas, gastronomía",
        "normativa": "Ord. Municipal 13.820/2019 - Eje San Martín Sur",
        "color": "#9b59b6"
      },
      "geometry": {
        "type": "Polygon",
        "coordinates": [
          [
            [
              -68.86,
              -32.955
            ],
            [
              -68.835,
              -32.955
            ],
            [
              -68.835,
              -32.98
            ],
            [
              -68.86,
              -32.98
            ],
            [
              -68.86,
              -32.955
            ]
          ]
        ]
      }
    },
    {
      "type": "Feature",
      "properties": {
        "codigo": "R-TUR",
        "nombre": "Turístico Vitivinícola y Paisajístico",
        "distrito": "VISTALBA / AGRELO",
        "fos": 0.25,
        "fot": 0.4,
        "altura_max": "8 m",
        "usos_permitidos": "Bodegas boutique, viñedos, turismo enológico, hotelería de campo",
        "normativa": "Ord. Municipal 13.820/2019 - Distrito del Vino y Paisaje",
        "color": "#27ae60"
      },
      "geometry": {
        "type": "Polygon",
        "coordinates": [
          [
            [
              -68.93,
              -33.01
            ],
            [
              -68.89,
              -33.01
            ],
            [
              -68.89,
              -33.04
            ],
            [
              -68.93,
              -33.04
            ],
            [
              -68.93,
              -33.01
            ]
          ]
        ]
      }
    },
    {
      "type": "Feature",
      "properties": {
        "codigo": "IND",
        "nombre": "Parque Industrial y Logístico",
        "distrito": "PERDRIEL",
        "fos": 0.65,
        "fot": 1.2,
        "altura_max": "14 m",
        "usos_permitidos": "Industrias clase II y III, depósitos, centros de distribución, agroindustria",
        "normativa": "Ord. Municipal 13.820/2019 - Polo Perdriel / RN40",
        "color": "#34495e"
      },
      "geometry": {
        "type": "Polygon",
        "coordinates": [
          [
            [
              -68.9,
              -33.075
            ],
            [
              -68.86,
              -33.075
            ],
            [
              -68.86,
              -33.105
            ],
            [
              -68.9,
              -33.105
            ],
            [
              -68.9,
              -33.075
            ]
          ]
        ]
      }
    },
    {
      "type": "Feature",
      "properties": {
        "codigo": "AP-PIED",
        "nombre": "Área de Protección Ambiental Piedemonte",
        "distrito": "LAS COMPUERTAS / CHACRAS",
        "fos": 0.1,
        "fot": 0.15,
        "altura_max": "6 m",
        "usos_permitidos": "Preservación ambiental de cuencas aluvionales, ecoturismo regulado",
        "normativa": "Ley Provincial de Piedemonte 4.886 y Ordenanza 12.441",
        "color": "#16a085"
      },
      "geometry": {
        "type": "Polygon",
        "coordinates": [
          [
            [
              -68.96,
              -32.98
            ],
            [
              -68.91,
              -32.98
            ],
            [
              -68.91,
              -33.03
            ],
            [
              -68.96,
              -33.03
            ],
            [
              -68.96,
              -32.98
            ]
          ]
        ]
      }
    },
    {
      "type": "Feature",
      "properties": {
        "codigo": "ZT-POT",
        "nombre": "Zona Turística Recreativa Dique Potrerillos",
        "distrito": "POTRERILLOS",
        "fos": 0.2,
        "fot": 0.3,
        "altura_max": "7 m",
        "usos_permitidos": "Deportes náuticos sin motor, cabañas, paradores gastronómicos",
        "normativa": "Plan de Manejo Costero Perilago Potrerillos",
        "color": "#2980b9"
      },
      "geometry": {
        "type": "Polygon",
        "coordinates": [
          [
            [
              -69.23,
              -32.93
            ],
            [
              -69.15,
              -32.93
            ],
            [
              -69.15,
              -32.99
            ],
            [
              -69.23,
              -32.99
            ],
            [
              -69.23,
              -32.93
            ]
          ]
        ]
      }
    }
  ]
}